SAR-LUPE 2              
1 31797U 07030A   26181.57174270  .00032341  00000+0  53494-3 0  9998
2 31797  98.1060 287.6843 0002728 207.9970 152.1134 15.52155089 59017
SAPPHIRE                
1 39088U 13009C   26181.54711628  .00000088  00000+0  45563-4 0  9995
2 39088  98.4265   0.6858 0010673 203.5982 156.4716 14.35244147698498
PRAETORIAN SDA_602      
1 65565U 25203A   26181.54153152  .00000079  00000+0  60235-4 0  9998
2 65565  81.3030 358.4004 0006548 152.3344 207.8162 13.83886579 40540
PRAETORIAN SDA_603      
1 65566U 25203B   26181.49822625  .00000115  00000+0  92888-4 0  9991
2 65566  81.3037 358.3631 0010042 152.0009 208.1690 13.83906372 40546
PRAETORIAN SDA_604      
1 65567U 25203C   26181.45384328  .00000068  00000+0  51673-4 0  9995
2 65567  81.3053 358.8364 0005998 156.1001 204.0434 13.83048938 40517
PRAETORIAN SDA_605      
1 65568U 25203D   26181.48779852  .00000028  00000+0  14993-4 0  9999
2 65568  81.3019 358.4552 0008780 147.9648 212.2044 13.83435063 40531
PRAETORIAN SDA_606      
1 65569U 25203E   26181.47263911  .00000042  00000+0  27164-4 0  9993
2 65569  81.3054 358.7010 0006665 150.9089 209.2440 13.83198906 40523
PRAETORIAN SDA_607      
1 65570U 25203F   26181.47022502  .00000228  00000+0  19375-3 0  9994
2 65570  81.3042 358.3409 0009419 152.1377 208.0286 13.84286380 40546
PRAETORIAN SDA_608      
1 65571U 25203G   26181.45210665  .00000082  00000+0  62919-4 0  9993
2 65571  81.3007 358.5254 0006511 155.2427 204.9043 13.83818154 40521
PRAETORIAN SDA_609      
1 65572U 25203H   26181.45325751  .00000202  00000+0  17024-3 0  9997
2 65572  81.3047 358.5046 0007457 150.4529 209.7051 13.84210502 40532
PRAETORIAN SDA_610      
1 65573U 25203J   26181.50461749  .00000067  00000+0  50025-4 0  9990
2 65573  81.3008 358.4360 0007261 154.7630 205.3882 13.83768908 40532
PRAETORIAN SDA_611      
1 65574U 25203K   26181.43750036  .00000311  00000+0  27254-3 0  9992
2 65574  81.3009 358.6729 0006008 158.8915 201.2490 13.83310407 40519
PRAETORIAN SDA_612      
1 65575U 25203L   26181.48281782  .00000252  00000+0  21249-3 0  9997
2 65575  81.3032 358.1848 0009821 151.2134 208.9567 13.85041063 40553
PRAETORIAN SDA_613      
1 65576U 25203M   26181.44945456  .00000058  00000+0  42019-4 0  9992
2 65576  81.3000 358.6693 0006270 149.2115 210.9410 13.82766309 40513
PRAETORIAN SDA_614      
1 65577U 25203N   26181.47450557  .00000037  00000+0  22003-4 0  9997
2 65577  81.3014 358.2736 0007736 148.7199 211.4420 13.84778219 40553
PRAETORIAN SDA_615      
1 65578U 25203P   26181.45466636  .00000178  00000+0  14798-3 0  9998
2 65578  81.3028 358.2649 0009507 150.0717 210.0985 13.84437444 40544
PRAETORIAN SDA_616      
1 65579U 25203Q   26181.43711054  .00000128  00000+0  10544-3 0  9994
2 65579  81.3065 358.8272 0005855 156.9130 203.2290 13.83269331 40517
PRAETORIAN SDA_617      
1 65580U 25203R   26181.45984469  .00000064  00000+0  47733-4 0  9990
2 65580  81.3037 358.6364 0007982 149.0998 211.0630 13.83151047 40526
PRAETORIAN SDA_618      
1 65581U 25203S   26181.49202839  .00000131  00000+0  10637-3 0  9996
2 65581  81.3019 358.1569 0010324 153.5155 206.6532 13.84224408 40555
PRAETORIAN SDA_619      
1 65582U 25203T   26181.46268273  .00000211  00000+0  17941-3 0  9992
2 65582  81.3049 358.4992 0008835 150.5473 209.6183 13.83807600 41169
PRAETORIAN SDA_620      
1 65583U 25203U   26181.49246894  .00000200  00000+0  17064-3 0  9995
2 65583  81.3035 358.4947 0008239 146.0262 214.1424 13.83619602 40531
PRAETORIAN SDA_621      
1 65584U 25203V   26181.46449635  .00000060  00000+0  43139-4 0  9998
2 65584  81.3021 358.4334 0008051 144.1794 215.9904 13.83802532 40536
PRAETORIAN SDA_601      
1 65585U 25203W   26181.44120417  .00000435  00000+0  38635-3 0  9991
2 65585  81.3040 358.7669 0005857 159.4782 200.6611 13.83168920 40519
VICTUS HAZE PUMA        
1 69646U 26142A   26181.57285321  .00003630  00000+0  16721-3 0  9998
2 69646  97.4475  79.0430 0020952 278.7628  81.1234 15.20748384  1709
